start=new Date('2022-04-28T00:00:00.000Z').valueOf();
sats=[{"SEMIMAJOR_AXIS":"6925.354","FILE":"3418497","MEAN_MOTION_DOT":"0.00001339","PERIAPSIS":"546.117","GP_ID":"202158271","ECCENTRICITY":"0.00015920","RCS_SIZE":"LARGE","BSTAR":"0.00010879000000","EPHEMERIS_TYPE":"0","TLE_LINE1":"1 47586U 21009AQ  22117.54834301  .00001339  00000-0  10879-3 0  9997","COUNTRY_CODE":"US","RA_OF_ASC_NODE":"260.9716","INCLINATION":"53.0555","TLE_LINE2":"2 47586  53.0555 260.9716 0001592  52.8227 307.2907 15.06398071 67673","NORAD_CAT_ID":"47586","OBJECT_NAME":"STARLINK-1990","SITE":"AFETR","REV_AT_EPOCH":"6767","MEAN_MOTION_DDOT":"0.0000000000000","PERIOD":"95.592","APOAPSIS":"548.322","CENTER_NAME":"EARTH","DECAY_DATE":null,"OBJECT_ID":"2021-009AQ","TIME_SYSTEM":"UTC","EPOCH":"2022-04-27T13:09:36.836064","OBJECT_TYPE":"PAYLOAD","REF_FRAME":"TEME","LAUNCH_DATE":"2021-02-04","MEAN_ELEMENT_THEORY":"SGP4","ELEMENT_SET_NO":"999","MEAN_ANOMALY":"307.2907","CLASSIFICATION_TYPE":"U","MEAN_MOTION":"15.06398071","ARG_OF_PERICENTER":"52.8227"},{"SEMIMAJOR_AXIS":"6925.392","PERIAPSIS":"546.209","MEAN_MOTION_DOT":"0.00000884","FILE":"3418747","BSTAR":"0.00007829100000","RCS_SIZE":"LARGE","ECCENTRICITY":"0.00015130","GP_ID":"202167195","TLE_LINE1":"1 47587U 21009AR  22117.74279036  .00000884  00000-0  78291-4 0  9995","EPHEMERIS_TYPE":"0","RA_OF_ASC_NODE":"230.1063","COUNTRY_CODE":"US","INCLINATION":"53.0547","TLE_LINE2":"2 47587  53.0547 230.1063 0001513  53.5539 306.5589 15.06385818 68726","NORAD_CAT_ID":"47587","OBJECT_NAME":"STARLINK-1991","MEAN_MOTION_DDOT":"0.0000000000000","REV_AT_EPOCH":"6872","SITE":"AFETR","DECAY_DATE":null,"CENTER_NAME":"EARTH","APOAPSIS":"548.305","PERIOD":"95.593","TIME_SYSTEM":"UTC","OBJECT_ID":"2021-009AR","EPOCH":"2022-04-27T17:49:37.087104","LAUNCH_DATE":"2021-02-04","ELEMENT_SET_NO":"999","MEAN_ELEMENT_THEORY":"SGP4","MEAN_ANOMALY":"306.5589","OBJECT_TYPE":"PAYLOAD","REF_FRAME":"TEME","ARG_OF_PERICENTER":"53.5539","MEAN_MOTION":"15.06385818","CLASSIFICATION_TYPE":"U"},{"MEAN_MOTION_DOT":"0.00002090","FILE":"3418497","PERIAPSIS":"546.110","SEMIMAJOR_AXIS":"6925.378","EPHEMERIS_TYPE":"0","TLE_LINE1":"1 47588U 21009AS  22117.60179131  .00002090  00000-0  15920-3 0  9996","GP_ID":"202157775","BSTAR":"0.00015920000000","RCS_SIZE":"LARGE","ECCENTRICITY":"0.00016360","INCLINATION":"53.0527","COUNTRY_CODE":"US","RA_OF_ASC_NODE":"240.7186","TLE_LINE2":"2 47588  53.0527 240.7186 0001636  67.0527 293.0635 15.06390551 67968","OBJECT_NAME":"STARLINK-1993","NORAD_CAT_ID":"47588","PERIOD":"95.593","CENTER_NAME":"EARTH","DECAY_DATE":null,"APOAPSIS":"548.376","SITE":"AFETR","MEAN_MOTION_DDOT":"0.0000000000000","REV_AT_EPOCH":"6796","EPOCH":"2022-04-27T14:26:34.769184","OBJECT_ID":"2021-009AS","TIME_SYSTEM":"UTC","CLASSIFICATION_TYPE":"U","MEAN_MOTION":"15.06390551","ARG_OF_PERICENTER":"67.0527","REF_FRAME":"TEME","OBJECT_TYPE":"PAYLOAD","LAUNCH_DATE":"2021-02-04","ELEMENT_SET_NO":"999","MEAN_ANOMALY":"293.0635","MEAN_ELEMENT_THEORY":"SGP4"},{"EPOCH":"2022-04-27T18:04:11.327232","TIME_SYSTEM":"UTC","OBJECT_ID":"2021-009AT","ARG_OF_PERICENTER":"50.3081","MEAN_MOTION":"15.06407162","CLASSIFICATION_TYPE":"U","MEAN_ELEMENT_THEORY":"SGP4","LAUNCH_DATE":"2021-02-04","ELEMENT_SET_NO":"999","MEAN_ANOMALY":"309.8068","OBJECT_TYPE":"PAYLOAD","REF_FRAME":"TEME","OBJECT_NAME":"STARLINK-1994","NORAD_CAT_ID":"47589","APOAPSIS":"548.449","CENTER_NAME":"EARTH","DECAY_DATE":null,"PERIOD":"95.592","REV_AT_EPOCH":"6858","MEAN_MOTION_DDOT":"0.0000000000000","SITE":"AFETR","INCLINATION":"53.0532","RA_OF_ASC_NODE":"240.0573","COUNTRY_CODE":"US","TLE_LINE2":"2 47589  53.0532 240.0573 0001816  50.3081 309.8068 15.06407162 68580","PERIAPSIS":"545.934","FILE":"3418747","MEAN_MOTION_DOT":"0.00004791","SEMIMAJOR_AXIS":"6925.327","TLE_LINE1":"1 47589U 21009AT  22117.75290888  .00004791  00000-0  34026-3 0  9994","EPHEMERIS_TYPE":"0","RCS_SIZE":"LARGE","ECCENTRICITY":"0.00018160","BSTAR":"0.00034026000000","GP_ID":"202167694"},{"ELEMENT_SET_NO":"999","LAUNCH_DATE":"2021-02-04","MEAN_ELEMENT_THEORY":"SGP4","MEAN_ANOMALY":"303.9941","OBJECT_TYPE":"PAYLOAD","REF_FRAME":"TEME","ARG_OF_PERICENTER":"56.1223","MEAN_MOTION":"15.06387395","CLASSIFICATION_TYPE":"U","TIME_SYSTEM":"UTC","OBJECT_ID":"2021-009AU","EPOCH":"2022-04-27T13:04:18.721632","MEAN_MOTION_DDOT":"0.0000000000000","REV_AT_EPOCH":"6767","SITE":"AFETR","APOAPSIS":"548.528","DECAY_DATE":null,"CENTER_NAME":"EARTH","PERIOD":"95.593","NORAD_CAT_ID":"47590","OBJECT_NAME":"STARLINK-1995","TLE_LINE2":"2 47590  53.0575 260.9943 0001842  56.1223 303.9941 15.06387395 67671","RA_OF_ASC_NODE":"260.9943","COUNTRY_CODE":"US","INCLINATION":"53.0575","ECCENTRICITY":"0.00018420","RCS_SIZE":"LARGE","BSTAR":"0.00008058300000","GP_ID":"202158772","TLE_LINE1":"1 47590U 21009AU  22117.54466113  .00000918  00000-0  80583-4 0  9996","EPHEMERIS_TYPE":"0","SEMIMAJOR_AXIS":"6925.387","PERIAPSIS":"545.977","FILE":"3418497","MEAN_MOTION_DOT":"0.00000918"},{"TLE_LINE2":"2 47591  53.0544 240.9690 0001618  50.2532 309.8599 15.06395858 67952","INCLINATION":"53.0544","COUNTRY_CODE":"US","RA_OF_ASC_NODE":"240.9690","EPHEMERIS_TYPE":"0","TLE_LINE1":"1 47591U 21009AV  22117.55019443  .00002522  00000-0  18817-3 0  9991","GP_ID":"202157526","RCS_SIZE":"LARGE","ECCENTRICITY":"0.00016180","BSTAR":"0.00018817000000","FILE":"3418497","MEAN_MOTION_DOT":"0.00002522","PERIAPSIS":"546.106","SEMIMAJOR_AXIS":"6925.361","MEAN_MOTION":"15.06395858","CLASSIFICATION_TYPE":"U","ARG_OF_PERICENTER":"50.2532","REF_FRAME":"TEME","OBJECT_TYPE":"PAYLOAD","LAUNCH_DATE":"2021-02-04","MEAN_ANOMALY":"309.8599","ELEMENT_SET_NO":"999","MEAN_ELEMENT_THEORY":"SGP4","EPOCH":"2022-04-27T13:12:16.798752","OBJECT_ID":"2021-009AV","TIME_SYSTEM":"UTC","PERIOD":"95.592","APOAPSIS":"548.347","CENTER_NAME":"EARTH","DECAY_DATE":null,"SITE":"AFETR","MEAN_MOTION_DDOT":"0.0000000000000","REV_AT_EPOCH":"6795","OBJECT_NAME":"STARLINK-1996","NORAD_CAT_ID":"47591"},{"COUNTRY_CODE":"US","RA_OF_ASC_NODE":"259.9334","INCLINATION":"53.0536","TLE_LINE2":"2 47592  53.0536 259.9334 0001472  66.3268 293.7876 15.06421527 68303","SEMIMAJOR_AXIS":"6925.283","FILE":"3418557","MEAN_MOTION_DOT":"0.00014734","PERIAPSIS":"546.128","GP_ID":"202162421","ECCENTRICITY":"0.00014720","RCS_SIZE":"LARGE","BSTAR":"0.00100540000000","TLE_LINE1":"1 47592U 21009AW  22117.78055318  .00014734  00000-0  10054-2 0  9990","EPHEMERIS_TYPE":"0","OBJECT_ID":"2021-009AW","TIME_SYSTEM":"UTC","EPOCH":"2022-04-27T18:43:59.794752","REF_FRAME":"TEME","OBJECT_TYPE":"PAYLOAD","MEAN_ELEMENT_THEORY":"SGP4","LAUNCH_DATE":"2021-02-04","ELEMENT_SET_NO":"999","MEAN_ANOMALY":"293.7876","MEAN_MOTION":"15.06421527","CLASSIFICATION_TYPE":"U","ARG_OF_PERICENTER":"66.3268","NORAD_CAT_ID":"47592","OBJECT_NAME":"STARLINK-1997","SITE":"AFETR","MEAN_MOTION_DDOT":"0.0000000000000","REV_AT_EPOCH":"6830","PERIOD":"95.591","APOAPSIS":"548.167","DECAY_DATE":null,"CENTER_NAME":"EARTH"},{"SEMIMAJOR_AXIS":"6925.358","PERIAPSIS":"545.976","FILE":"3418497","MEAN_MOTION_DOT":"0.00001818","ECCENTRICITY":"0.00018000","RCS_SIZE":"LARGE","BSTAR":"0.00014096000000","GP_ID":"202158527","EPHEMERIS_TYPE":"0","TLE_LINE1":"1 47593U 21009AX  22117.55202529  .00001818  00000-0  14096-3 0  9994","RA_OF_ASC_NODE":"260.9437","COUNTRY_CODE":"US","INCLINATION":"53.0545","TLE_LINE2":"2 47593  53.0545 260.9437 0001800  53.7076 306.4079 15.06397055 67676","NORAD_CAT_ID":"47593","OBJECT_NAME":"STARLINK-1998","MEAN_MOTION_DDOT":"0.0000000000000","REV_AT_EPOCH":"6767","SITE":"AFETR","APOAPSIS":"548.469","CENTER_NAME":"EARTH","DECAY_DATE":null,"PERIOD":"95.592","TIME_SYSTEM":"UTC","OBJECT_ID":"2021-009AX","EPOCH":"2022-04-27T13:14:54.985056","MEAN_ANOMALY":"306.4079","LAUNCH_DATE":"2021-02-04","ELEMENT_SET_NO":"999","MEAN_ELEMENT_THEORY":"SGP4","REF_FRAME":"TEME","OBJECT_TYPE":"PAYLOAD","ARG_OF_PERICENTER":"53.7076","CLASSIFICATION_TYPE":"U","MEAN_MOTION":"15.06397055"},{"NORAD_CAT_ID":"47594","OBJECT_NAME":"STARLINK-1999","REV_AT_EPOCH":"6828","MEAN_MOTION_DDOT":"0.0000000000000","SITE":"AFETR","DECAY_DATE":null,"CENTER_NAME":"EARTH","APOAPSIS":"548.382","PERIOD":"95.593","TIME_SYSTEM":"UTC","OBJECT_ID":"2021-009AY","EPOCH":"2022-04-27T15:38:13.880256","ELEMENT_SET_NO":"999","LAUNCH_DATE":"2021-02-04","MEAN_ELEMENT_THEORY":"SGP4","MEAN_ANOMALY":"308.5155","REF_FRAME":"TEME","OBJECT_TYPE":"PAYLOAD","ARG_OF_PERICENTER":"51.5982","MEAN_MOTION":"15.06393288","CLASSIFICATION_TYPE":"U","SEMIMAJOR_AXIS":"6925.369","PERIAPSIS":"546.086","MEAN_MOTION_DOT":"-0.00001276","FILE":"3418747","BSTAR":"-0.00006680200000","RCS_SIZE":"LARGE","ECCENTRICITY":"0.00016580","GP_ID":"202167687","EPHEMERIS_TYPE":"0","TLE_LINE1":"1 47594U 21009AY  22117.65154954 -.00001276  00000-0 -66802-4 0  9997","RA_OF_ASC_NODE":"260.5153","COUNTRY_CODE":"US","INCLINATION":"53.0531","TLE_LINE2":"2 47594  53.0531 260.5153 0001658  51.5982 308.5155 15.06393288 68286"},{"TLE_LINE2":"2 47595  53.0530 259.9828 0001765  64.5181 295.5991 15.06431310 68306","COUNTRY_CODE":"US","RA_OF_ASC_NODE":"259.9828","INCLINATION":"53.0530","GP_ID":"202167192","BSTAR":"0.00064147000000","RCS_SIZE":"LARGE","ECCENTRICITY":"0.00017650","EPHEMERIS_TYPE":"0","TLE_LINE1":"1 47595U 21009AZ  22117.76948892  .00009294  00000-0  64147-3 0  9997","SEMIMAJOR_AXIS":"6925.253","MEAN_MOTION_DOT":"0.00009294","FILE":"3418747","PERIAPSIS":"545.895","REF_FRAME":"TEME","OBJECT_TYPE":"PAYLOAD","LAUNCH_DATE":"2021-02-04","MEAN_ANOMALY":"295.5991","ELEMENT_SET_NO":"999","MEAN_ELEMENT_THEORY":"SGP4","CLASSIFICATION_TYPE":"U","MEAN_MOTION":"15.06431310","ARG_OF_PERICENTER":"64.5181","OBJECT_ID":"2021-009AZ","TIME_SYSTEM":"UTC","EPOCH":"2022-04-27T18:28:03.842688","SITE":"AFETR","REV_AT_EPOCH":"6830","MEAN_MOTION_DDOT":"0.0000000000000","PERIOD":"95.590","DECAY_DATE":null,"CENTER_NAME":"EARTH","APOAPSIS":"548.340","NORAD_CAT_ID":"47595","OBJECT_NAME":"STARLINK-2000"}];
